COMMENT,ORIGINATOR,NORAD_CAT_ID,OBJECT_NAME,OBJECT_TYPE,CLASSIFICATION_TYPE,INTLDES,EPOCH,EPOCH_MICROSECONDS,MEAN_MOTION,ECCENTRICITY,INCLINATION,RA_OF_ASC_NODE,ARG_OF_PERICENTER,MEAN_ANOMALY,EPHEMERIS_TYPE,ELEMENT_SET_NO,REV_AT_EPOCH,BSTAR,MEAN_MOTION_DOT,MEAN_MOTION_DDOT,FILE,TLE_LINE0,TLE_LINE1,TLE_LINE2,OBJECT_ID,OBJECT_NUMBER,SEMIMAJOR_AXIS,PERIOD,APOGEE,PERIGEE,DECAYED
"GENERATED VIA SPACETRACK.ORG API","18 SPCS","55096","SPACEBEE-161","PAYLOAD","U","23001CR","2024-04-13 04:01:07","651488","15.38909058","0.0008731","97.4266","169.2607","27.5182","332.6524","0","999","7105","0.0012361","0.00047801","0","4278498","0 SPACEBEE-161","1 55096U 23001CR  24104.16744967  .00047801  00000-0  12361-2 0  9991","2 55096  97.4266 169.2607 0008731  27.5182 332.6524 15.38909058 71052","2023-001CR","55096","6827.471","93.573","455.297","443.375","0"
"GENERATED VIA SPACETRACK.ORG API","18 SPCS","55096","SPACEBEE-161","PAYLOAD","U","23001CR","2024-04-13 18:03:48","708576","15.38969149","0.0008645","97.4264","169.8539","25.0636","335.1027","0","999","7114","0.0012923","0.0005009","0","4278987","0 SPACEBEE-161","1 55096U 23001CR  24104.75264709  .00050090  00000-0  12923-2 0  9995","2 55096  97.4264 169.8539 0008645  25.0636 335.1027 15.38969149 71144","2023-001CR","55096","6827.293","93.569","455.061","443.256","0"
"GENERATED VIA SPACETRACK.ORG API","18 SPCS","55096","SPACEBEE-161","PAYLOAD","U","23001CR","2024-04-14 03:25:34","893408","15.39012918","0.0008746","97.4267","170.249","22.7589","337.4043","0","999","7120","0.0013507","0.0005245","0","4279922","0 SPACEBEE-161","1 55096U 23001CR  24105.14276497  .00052450  00000-0  13507-2 0  9997","2 55096  97.4267 170.2490 0008746  22.7589 337.4043 15.39012918 71206","2023-001CR","55096","6827.164","93.566","455.000","443.058","0"
"GENERATED VIA SPACETRACK.ORG API","18 SPCS","55096","SPACEBEE-161","PAYLOAD","U","23001CR","2024-04-14 17:28:12","427104","15.39080543","0.0008696","97.4267","170.8421","20.6278","339.5317","0","999","7129","0.0014494","0.00056441","0","4280633","0 SPACEBEE-161","1 55096U 23001CR  24105.72792161  .00056441  00000-0  14494-2 0  9992","2 55096  97.4267 170.8421 0008696  20.6278 339.5317 15.39080543 71297","2023-001CR","55096","6826.964","93.562","454.766","442.892","0"
"GENERATED VIA SPACETRACK.ORG API","18 SPCS","55096","SPACEBEE-161","PAYLOAD","U","23001CR","2024-04-15 02:49:56","167680","15.39130146","0.0008688","97.4268","171.2374","18.747","341.4094","0","999","7135","0.0015881","0.00061994","0","4280914","0 SPACEBEE-161","1 55096U 23001CR  24106.11801120  .00061994  00000-0  15881-2 0  9992","2 55096  97.4268 171.2374 0008688  18.7470 341.4094 15.39130146 71359","2023-001CR","55096","6826.817","93.559","454.613","442.751","0"
"GENERATED VIA SPACETRACK.ORG API","18 SPCS","55096","SPACEBEE-161","PAYLOAD","U","23001CR","2024-04-15 02:49:56","167680","15.39130146","0.0008688","97.4268","171.2374","18.747","341.4094","0","999","7135","0.0015881","0.00061994","0","4281855","0 SPACEBEE-161","1 55096U 23001CR  24106.11801120  .00061994  00000-0  15881-2 0  9992","2 55096  97.4268 171.2374 0008688  18.7470 341.4094 15.39130146 71359","2023-001CR","55096","6826.817","93.559","454.613","442.751","0"
"GENERATED VIA SPACETRACK.ORG API","18 SPCS","55096","SPACEBEE-161","PAYLOAD","U","23001CR","2024-04-16 03:47:47","89824","15.39277242","0.0008368","97.427","172.292","14.4798","345.6685","0","999","7151","0.0018326","0.00071982","0","4282885","0 SPACEBEE-161","1 55096U 23001CR  24107.15818391  .00071982  00000-0  18326-2 0  9990","2 55096  97.4270 172.2920 0008368  14.4798 345.6685 15.39277242 71510","2023-001CR","55096","6826.382","93.550","453.960","442.535","0"
"GENERATED VIA SPACETRACK.ORG API","18 SPCS","55096","SPACEBEE-161","PAYLOAD","U","23001CR","2024-04-16 10:02:13","282656","15.3932715","0.0008348","97.4265","172.5565","13.7774","346.3698","0","999","7155","0.0022115","0.00087195","0","4283723","0 SPACEBEE-161","1 55096U 23001CR  24107.41820929  .00087195  00000-0  22115-2 0  9993","2 55096  97.4265 172.5565 0008348  13.7774 346.3698 15.39327150 71556","2023-001CR","55096","6826.235","93.547","453.798","442.401","0"
"GENERATED VIA SPACETRACK.ORG API","18 SPCS","55096","SPACEBEE-161","PAYLOAD","U","23001CR","2024-04-16 10:02:13","282656","15.3932715","0.0008348","97.4265","172.5565","13.7774","346.3698","0","999","7155","0.0022115","0.00087195","0","4283936","0 SPACEBEE-161","1 55096U 23001CR  24107.41820929  .00087195  00000-0  22115-2 0  9993","2 55096  97.4265 172.5565 0008348  13.7774 346.3698 15.39327150 71556","2023-001CR","55096","6826.235","93.547","453.798","442.401","0"
"GENERATED VIA SPACETRACK.ORG API","18 SPCS","55096","SPACEBEE-161","PAYLOAD","U","23001CR","2024-04-16 17:50:15","121248","15.39390659","0.0008351","97.4266","172.886","11.763","348.3809","0","999","7160","0.0023952","0.00094733","0","4284483","0 SPACEBEE-161","1 55096U 23001CR  24107.74323057  .00094733  00000-0  23952-2 0  9995","2 55096  97.4266 172.8860 0008351  11.7630 348.3809 15.39390659 71607","2023-001CR","55096","6826.047","93.544","453.612","442.212","0"
"GENERATED VIA SPACETRACK.ORG API","18 SPCS","55096","SPACEBEE-161","PAYLOAD","U","23001CR","2024-04-17 03:11:51","723456","15.39469213","0.0008238","97.4267","173.2812","10.2371","349.9041","0","999","7166","0.0023465","0.0009302","0","4284846","0 SPACEBEE-161","1 55096U 23001CR  24108.13323754  .00093020  00000-0  23465-2 0  9990","2 55096  97.4267 173.2812 0008238  10.2371 349.9041 15.39469213 71664","2023-001CR","55096","6825.815","93.539","453.303","442.057","0"
"GENERATED VIA SPACETRACK.ORG API","18 SPCS","55096","SPACEBEE-161","PAYLOAD","U","23001CR","2024-04-17 03:11:51","723456","15.39469213","0.0008238","97.4267","173.2812","10.2371","349.9041","0","999","7166","0.0023465","0.0009302","0","4285817","0 SPACEBEE-161","1 55096U 23001CR  24108.13323754  .00093020  00000-0  23465-2 0  9990","2 55096  97.4267 173.2812 0008238  10.2371 349.9041 15.39469213 71664","2023-001CR","55096","6825.815","93.539","453.303","442.057","0"
"GENERATED VIA SPACETRACK.ORG API","18 SPCS","55096","SPACEBEE-161","PAYLOAD","U","23001CR","2024-04-17 17:14:13","769952","15.39566926","0.0008286","97.427","173.8749","7.7939","352.3434","0","999","7175","0.0019846","0.00078769","0","4286142","0 SPACEBEE-161","1 55096U 23001CR  24108.71821493  .00078769  00000-0  19846-2 0  9998","2 55096  97.4270 173.8749 0008286   7.7939 352.3434 15.39566926 71750","2023-001CR","55096","6825.526","93.533","453.047","441.735","0"
"GENERATED VIA SPACETRACK.ORG API","18 SPCS","55096","SPACEBEE-161","PAYLOAD","U","23001CR","2024-04-17 17:14:13","769952","15.39566926","0.0008286","97.427","173.8749","7.7939","352.3434","0","999","7175","0.0019846","0.00078769","0","4286350","0 SPACEBEE-161","1 55096U 23001CR  24108.71821493  .00078769  00000-0  19846-2 0  9998","2 55096  97.4270 173.8749 0008286   7.7939 352.3434 15.39566926 71750","2023-001CR","55096","6825.526","93.533","453.047","441.735","0"
"GENERATED VIA SPACETRACK.ORG API","18 SPCS","55096","SPACEBEE-161","PAYLOAD","U","23001CR","2024-04-18 04:09:21","907008","15.39649186","0.0008189","97.4269","174.336","6.0501","354.0842","0","999","7182","0.0019493","0.00077561","0","4287604","0 SPACEBEE-161","1 55096U 23001CR  24109.17317022  .00077561  00000-0  19493-2 0  9994","2 55096  97.4269 174.3360 0008189   6.0501 354.0842 15.39649186 71822","2023-001CR","55096","6825.283","93.528","452.737","441.559","0"
"GENERATED VIA SPACETRACK.ORG API","18 SPCS","55096","SPACEBEE-161","PAYLOAD","U","23001CR","2024-04-18 16:38:03","230880","15.39728451","0.0008206","97.4267","174.8638","3.2778","356.852","0","999","7190","0.0019128","0.00076292","0","4287959","0 SPACEBEE-161","1 55096U 23001CR  24109.69309295  .00076292  00000-0  19128-2 0  9999","2 55096  97.4267 174.8638 0008206   3.2778 356.8520 15.39728451 71903","2023-001CR","55096","6825.049","93.523","452.514","441.313","0"
"GENERATED VIA SPACETRACK.ORG API","18 SPCS","55096","SPACEBEE-161","PAYLOAD","U","23001CR","2024-04-18 16:38:03","230880","15.39728451","0.0008206","97.4267","174.8638","3.2778","356.852","0","999","7190","0.0019128","0.00076292","0","4288150","0 SPACEBEE-161","1 55096U 23001CR  24109.69309295  .00076292  00000-0  19128-2 0  9999","2 55096  97.4267 174.8638 0008206   3.2778 356.8520 15.39728451 71903","2023-001CR","55096","6825.049","93.523","452.514","441.313","0"
"GENERATED VIA SPACETRACK.ORG API","18 SPCS","55096","SPACEBEE-161","PAYLOAD","U","23001CR","2024-04-19 03:33:07","397856","15.39805421","0.0008241","97.4266","175.3252","1.0815","359.0447","0","999","7197","0.0020528","0.00082152","0","4289403","0 SPACEBEE-161","1 55096U 23001CR  24110.14800229  .00082152  00000-0  20528-2 0  9992","2 55096  97.4266 175.3252 0008241   1.0815 359.0447 15.39805421 71970","2023-001CR","55096","6824.821","93.518","452.311","441.062","0"
"GENERATED VIA SPACETRACK.ORG API","18 SPCS","55096","SPACEBEE-161","PAYLOAD","U","23001CR","2024-04-19 17:35:18","266784","15.39919436","0.0008389","97.4266","175.9183","358.2965","1.8251","0","999","7206","0.0025083","0.00101025","0","4289766","0 SPACEBEE-161","1 55096U 23001CR  24110.73285031  .00101025  00000-0  25083-2 0  9997","2 55096  97.4266 175.9183 0008389 358.2965   1.8251 15.39919436 72063","2023-001CR","55096","6824.484","93.511","452.074","440.624","0"
"GENERATED VIA SPACETRACK.ORG API","18 SPCS","55096","SPACEBEE-161","PAYLOAD","U","23001CR","2024-04-19 17:35:18","266784","15.39919436","0.0008389","97.4266","175.9183","358.2965","1.8251","0","999","7206","0.0025083","0.00101025","0","4290026","0 SPACEBEE-161","1 55096U 23001CR  24110.73285031  .00101025  00000-0  25083-2 0  9997","2 55096  97.4266 175.9183 0008389 358.2965   1.8251 15.39919436 72063","2023-001CR","55096","6824.484","93.511","452.074","440.624","0"
